#dP2026  3 20 12  0  0.00000000     577 ORBIT IGS20 BHN ESOC                    
## 2410 475200.00000000   300.00000000 61119 0.5000000000000                    
+   53   G13G22G07G05G31G17G15G16G29G12G19G02G25G30G24G27G06                    
+        G09G03G32G26G08G10G04G18G23G14G11G28G01G21G20R09R26                    
+        R11R22R19R20R06R08R03R07R02R17R14R18R21R05R15R12R04                    
+        R24R16  0  0  0  0  0  0  0  0  0  0  0  0  0  0  0                    
+          0  0  0  0  0  0  0  0  0  0  0  0  0  0  0  0  0                    
++         4  4  5  4  4  4  4  5  5  4  4  4  4  5  5  4  7                    
++         4  5  4  5  4  4  4  4  4  4  4  5  5  4  5  6  6                    
++         6  6  6  6  7  6  6  6  6  7  6  5  6  6  7  6  6                    
++         6  7  0  0  0  0  0  0  0  0  0  0  0  0  0  0  0                    
++         0  0  0  0  0  0  0  0  0  0  0  0  0  0  0  0  0                    
%c M  cc GPS ccc cccc cccc cccc cccc ccccc ccccc ccccc ccccc                    
%c cc cc ccc ccc cccc cccc cccc cccc ccccc ccccc ccccc ccccc                    
%f  0.0000000  0.000000000  0.00000000000  0.000000000000000                    
%f  0.0000000  0.000000000  0.00000000000  0.000000000000000                    
%i    0    0    0    0      0      0      0      0         0                    
%i    0    0    0    0      0      0      0      0         0                    
/*   EUROPEAN SPACE OPERATIONS CENTRE - DARMSTADT, GERMANY
/* ---------------------------------------------------------
/*  SP3 FILE GENERATED BY EPNS BAHN TOOL  (DETERMINATION)
/* PCV:ESA23_2408 OL/AL:EOT11A   NONE     YN ORB:CoN CLK:CoN                    
*  2026  3 21 12  5  0.00000000                                                 
PG13 -13110.662304  18465.815348  13387.604722    682.697499               P   P
PG22 -22601.360079  -9046.062789  -9899.953707    -30.809372               P   P
PG07 -11550.195111 -11474.767482  21654.822915   -163.424205               P   P
PG05 -10288.846183  10867.678966  21774.989773   -230.640833               P   P
PG31  24709.420244 -10014.640823  -2171.610888   -160.289457               P   P
PG17 -13392.014316  -9445.054742 -20477.494392    -93.145321               P   P
PG15  -3100.626372  24880.249562   8136.344844    396.105093               P   P
PG16  15598.512365  -5924.069625  20369.159651    229.985105               P   P
PG29   4579.518440  23674.477086  10920.118993   -355.051039               P   P
PG12    705.110952  17994.583302 -19816.875846   -607.937212               P   P
PG19 -15449.241542    242.677675 -21637.108545    694.457401               P   P
PG02  14585.884405 -18396.157410 -11458.556710     62.356294               P   P
PG25  14071.890898  19227.789553 -12379.846364    435.760196               P   P
PG30 -20829.710967  -2966.536515  16562.742970    159.897321               P   P
PG24  -8943.349349  19661.957866 -15750.832558    -72.304544               P   P
PG27  12577.913228 -15705.724357  16746.533901    -76.073815               P   P
PG06 -23949.267878   3141.643048 -11159.855810   -612.648579               P   P
PG09  -7466.152373 -22525.718060  11757.744313    765.303675               P   P
PG03  -5349.882187 -18332.072367 -18703.327605    532.237292               P   P
PG32  14500.443970   5179.543292 -21386.788348    -37.922048               P   P
PG26  23190.794048   1136.815829  13013.010378   -343.366289               P   P
PG08   6772.563486 -23699.090751   9043.721649    474.897224               P   P
PG10  23535.761281  10588.652551  -6707.194525   -590.375136               P   P
PG04    570.696296 -26313.741964   2814.556481     49.828002               P   P
PG18  13177.378701   9631.546559  21056.798376   -396.533042               P   P
PG23  19722.680169  17016.877903   5951.238331    626.664415               P   P
PG14 -23344.660283 -12373.648024  -3926.693174    740.144674               P   P
PG11 -23343.816692  12354.973422   2450.515320   -399.999052               P   P
PG28  23734.039318  -3771.991173 -11334.768203   -573.450454               P   P
PG01   4841.992672 -17039.260368 -19771.845416    313.553668               P   P
PG21 -18221.139531   3542.981588  19019.078237    410.253443               P   P
PG20 -10419.685178  20209.233134  13832.113791     64.797070               P   P
PR09 -21826.595812   1578.061202 -13162.313156    315.130264               P   P
PR26   6304.438008  24701.994122    308.357715    -27.462759               P   P
PR11  10415.020511  12482.242943 -19640.253238     22.076038               P   P
PR22    -45.957508  13981.292604  21360.443641    116.676428               P   P
PR19 -13281.299493  -1970.896857 -21685.250604     38.962071               P   P
PR20 -20254.392868  12176.968757  -9639.130271    229.959609               P   P
PR06 -10146.942883   3780.653351  23106.333020     24.504604               P   P
PR08   7582.536043  24181.257811  -2992.778482     -3.730860               P   P
PR03    983.575913 -21487.804682 -13611.717924    140.990872               P   P
PR07  -1183.815129  21394.296150  13924.593924    119.772363               P   P
PR02   9677.492662  -4925.825282 -23024.973160     12.111874               P   P
PR17  13866.342301 -19387.190334  -9135.443643    280.094169               P   P
PR14   7477.658014  -9350.064828  22531.274947     31.902711               P   P
PR18   1523.061050 -14577.511857 -20851.126411    252.712350               P   P
PR21 -15934.751460  18962.043376   6042.629461   -291.509905               P   P
PR05 -11653.717569 -14319.776022  17609.481758    165.256119               P   P
PR15 -11187.118837 -12623.057999  19156.983432     57.959523               P   P
PR12  23617.541233   8626.620765  -4300.012770     66.763027               P   P
PR04  -7191.556156 -24306.792464   2837.018692    344.465665               P   P
PR24  19732.860689 -13395.407467   9078.429576   -155.082849               P   P
PR16 -23666.277207  -8593.141993   4227.394097     46.732804               P   P
EOF                                                                             
